NORAD_CAT_ID,OBJECT_NAME,OBJECT_TYPE,EPOCH,MEAN_MOTION,ECCENTRICITY,INCLINATION,RA_OF_ASC_NODE,ARG_OF_PERICENTER,MEAN_ANOMALY,BSTAR,MEAN_MOTION_DOT,MEAN_MOTION_DDOT,TLE_LINE0,TLE_LINE1,TLE_LINE2,SEMIMAJOR_AXIS,PERIOD,APOGEE,PERIGEE,DECAYED
53826.0,STARLINK-4756,PAYLOAD,2023-08-30 23:15:13,15.08843215,0.000135,53.217,121.8313,94.2231,265.8915,7.9006e-05,9.7e-06,0.0,0 STARLINK-4756,1 53826U 22114J   23242.96890084  .00000970  00000-0  79006-4 0  9993,2 53826  53.2170 121.8313 0001350  94.2231 265.8915 15.08843215 53149,6917.871,95.437,540.669,538.802,0.0
53826.0,STARLINK-4756,PAYLOAD,2023-09-01 00:41:22,15.08867117,0.0001054,53.2168,117.0777,142.939,217.1675,-0.00029541,-4.99e-05,0.0,0 STARLINK-4756,1 53826U 22114J   23244.02873563 -.00004990  00000-0 -29541-3 0  9991,2 53826  53.2168 117.0777 0001054 142.9390 217.1675 15.08867117 53303,6917.798,95.436,540.392,538.933,0.0
53826.0,STARLINK-4756,PAYLOAD,2023-09-01 08:38:19,15.08837479,0.0001446,53.2161,115.5865,87.8343,272.2814,8.7179e-05,1.1e-05,0.0,0 STARLINK-4756,1 53826U 22114J   23244.35994799  .00001100  00000-0  87179-4 0  9992,2 53826  53.2161 115.5865 0001446  87.8343 272.2814 15.08837479 53357,6917.888,95.438,540.753,538.753,0.0
53826.0,STARLINK-4756,PAYLOAD,2023-09-01 21:21:17,15.08956739,0.0003349,53.2189,113.2092,273.0174,87.0435,-0.0006896,-0.00011283,0.0,0 STARLINK-4756,1 53826U 22114J   23244.88978825 -.00011283  00000-0 -68960-3 0  9993,2 53826  53.2189 113.2092 0003349 273.0174  87.0435 15.08956739 53430,6917.524,95.43,541.705,537.072,0.0
53826.0,STARLINK-4756,PAYLOAD,2023-09-02 00:32:10,15.08841769,0.0001339,53.2167,112.6128,82.6982,277.4162,8.5266e-05,1.069e-05,0.0,0 STARLINK-4756,1 53826U 22114J   23245.02234399  .00001069  00000-0  85266-4 0  9999,2 53826  53.2167 112.6128 0001339  82.6982 277.4162 15.08841769 53457,6917.875,95.437,540.666,538.814,0.0
53826.0,STARLINK-4756,PAYLOAD,2023-09-02 08:29:07,15.08829134,0.0001393,53.2169,111.1261,89.3004,270.8148,-2.8733e-05,-7.45e-06,0.0,0 STARLINK-4756,1 53826U 22114J   23245.35355511 -.00000745  00000-0 -28733-4 0  9993,2 53826  53.2169 111.1261 0001393  89.3004 270.8148 15.08829134 53509,6917.914,95.438,540.742,538.815,0.0
53826.0,STARLINK-4756,PAYLOAD,2023-09-02 21:12:11,15.08838455,0.0001075,53.2169,108.7475,89.194,270.9176,3.1421e-05,2.12e-06,0.0,0 STARLINK-4756,1 53826U 22114J   23245.88346790  .00000212  00000-0  31421-4 0  9995,2 53826  53.2169 108.7475 0001075  89.1940 270.9176 15.08838455 54129,6917.885,95.438,540.494,539.006,0.0
53826.0,STARLINK-4756,PAYLOAD,2023-09-03 00:22:57,15.08843467,0.0001474,53.2145,108.1524,89.1732,270.9429,7.5773e-05,9.18e-06,0.0,0 STARLINK-4756,1 53826U 22114J   23246.01594363  .00000918  00000-0  75773-4 0  9993,2 53826  53.2145 108.1524 0001474  89.1732 270.9429 15.08843467 53606,6917.87,95.437,540.754,538.715,0.0
53826.0,STARLINK-4756,PAYLOAD,2023-09-03 08:19:53,15.08841763,0.0001742,53.2128,106.6654,88.3033,271.8159,6.3407e-05,7.21e-06,0.0,0 STARLINK-4756,1 53826U 22114J   23246.34714636  .00000721  00000-0  63407-4 0  9999,2 53826  53.2128 106.6654 0001742  88.3033 271.8159 15.08841763 54199,6917.875,95.437,540.945,538.535,0.0
53826.0,STARLINK-4756,PAYLOAD,2023-09-03 22:38:21,15.08844351,0.0001343,53.2175,103.988,96.3098,263.8047,-1.7099e-05,-5.6e-06,0.0,0 STARLINK-4756,1 53826U 22114J   23246.94330549 -.00000560  00000-0 -17099-4 0  9991,2 53826  53.2175 103.9880 0001343  96.3098 263.8047 15.08844351 53742,6917.867,95.437,540.661,538.803,0.0
53826.0,STARLINK-4756,PAYLOAD,2023-09-04 20:53:46,15.08833613,0.000143,53.216,99.828,86.6641,273.4514,1.8361e-05,4e-08,0.0,0 STARLINK-4756,1 53826U 22114J   23247.87067363  .00000004  00000-0  18361-4 0  9999,2 53826  53.2160  99.8280 0001430  86.6641 273.4514 15.08833613 53886,6917.9,95.438,540.754,538.776,0.0
53826.0,STARLINK-4756,PAYLOAD,2023-09-05 00:04:32,15.08838013,0.0001434,53.2168,99.2308,92.7571,267.3586,1.2738e-05,-8.5e-07,0.0,0 STARLINK-4756,1 53826U 22114J   23248.00315095 -.00000085  00000-0  12738-4 0  9995,2 53826  53.2168  99.2308 0001434  92.7571 267.3586 15.08838013 54446,6917.886,95.438,540.743,538.759,0.0
53826.0,STARLINK-4756,PAYLOAD,2023-09-05 23:55:18,15.08851407,0.0001484,53.2173,94.7714,85.0135,275.1026,6.1294e-08,-2.87e-06,0.0,0 STARLINK-4756,1 53826U 22114J   23248.99674364 -.00000287  00000-0  61294-7 0  9998,2 53826  53.2173  94.7714 0001484  85.0135 275.1026 15.08851407 54054,6917.846,95.437,540.737,538.684,0.0
53826.0,STARLINK-4756,PAYLOAD,2023-09-06 06:16:51,15.08840617,0.0001395,53.2173,93.5818,86.1528,273.9623,5.3699e-05,5.67e-06,0.0,0 STARLINK-4756,1 53826U 22114J   23249.26170900  .00000567  00000-0  53699-4 0  9993,2 53826  53.2173  93.5818 0001395  86.1528 273.9623 15.08840617 54099,6917.879,95.438,540.709,538.778,0.0
53826.0,STARLINK-4756,PAYLOAD,2023-09-07 12:29:11,15.08842916,0.0001828,53.2163,87.9319,84.1982,275.9218,-5.5604e-05,-1.173e-05,0.0,0 STARLINK-4756,1 53826U 22114J   23250.52027197 -.00001173  00000-0 -55604-4 0  9997,2 53826  53.2163  87.9319 0001828  84.1982 275.9218 15.08842916 54821,6917.871,95.437,541.001,538.472,0.0
53826.0,STARLINK-4756,PAYLOAD,2023-09-07 20:26:07,15.08841571,0.0001551,53.2166,86.4449,86.1935,273.9234,-3.0369e-05,-7.71e-06,0.0,0 STARLINK-4756,1 53826U 22114J   23250.85147314 -.00000771  00000-0 -30369-4 0  9991,2 53826  53.2166  86.4449 0001551  86.1935 273.9234 15.08841571 54872,6917.876,95.437,540.814,538.668,0.0
53826.0,STARLINK-4756,PAYLOAD,2023-09-07 23:36:53,15.08839281,0.0001485,53.2164,85.8505,85.2474,274.8688,-2.2873e-05,-6.52e-06,0.0,0 STARLINK-4756,1 53826U 22114J   23250.98395431 -.00000652  00000-0 -22873-4 0  9999,2 53826  53.2164  85.8505 0001485  85.2474 274.8688 15.08839281 54890,6917.883,95.438,540.775,538.72,0.0
53826.0,STARLINK-4756,PAYLOAD,2023-09-08 18:41:31,15.0883716,0.0001608,53.2183,82.2824,80.1241,279.9932,6.4018e-05,7.31e-06,0.0,0 STARLINK-4756,1 53826U 22114J   23251.77883439  .00000731  00000-0  64018-4 0  9990,2 53826  53.2183  82.2824 0001608  80.1241 279.9932 15.08837160 54475,6917.889,95.438,540.866,538.642,0.0
53826.0,STARLINK-4756,PAYLOAD,2023-09-08 20:16:54,15.0883924,0.00015,53.2175,81.9851,75.1719,284.9439,7.9194e-05,9.73e-06,0.0,0 STARLINK-4756,1 53826U 22114J   23251.84507283  .00000973  00000-0  79194-4 0  9997,2 53826  53.2175  81.9851 0001500  75.1719 284.9439 15.08839240 55028,6917.883,95.438,540.785,538.71,0.0
53826.0,STARLINK-4756,PAYLOAD,2023-09-09 12:10:46,15.08835569,0.0001381,53.2166,79.011,85.0155,275.0995,4.9435e-05,4.99e-06,0.0,0 STARLINK-4756,1 53826U 22114J   23252.50747698  .00000499  00000-0  49435-4 0  9995,2 53826  53.2166  79.0110 0001381  85.0155 275.0995 15.08835569 55124,6917.894,95.438,540.714,538.804,0.0
53826.0,STARLINK-4756,PAYLOAD,2023-09-09 18:32:19,15.08821786,0.0001214,53.2162,77.8209,86.0809,274.0322,0.00023759,3.494e-05,0.0,0 STARLINK-4756,1 53826U 22114J   23252.77244275  .00003494  00000-0  23759-3 0  9995,2 53826  53.2162  77.8209 0001214  86.0809 274.0322 15.08821786 54620,6917.936,95.439,540.641,538.961,0.0
53826.0,STARLINK-4756,PAYLOAD,2023-09-09 20:07:41,15.08838395,0.0001313,53.2169,77.5238,85.3741,274.7401,6.9276e-05,8.15e-06,0.0,0 STARLINK-4756,1 53826U 22114J   23252.83867580  .00000815  00000-0  69276-4 0  9991,2 53826  53.2169  77.5238 0001313  85.3741 274.7401 15.08838395 54633,6917.885,95.438,540.659,538.842,0.0
53826.0,STARLINK-4756,PAYLOAD,2023-09-10 12:01:33,15.08826232,0.000129,53.2172,74.5508,89.9229,270.1911,0.00030724,4.603e-05,0.0,0 STARLINK-4756,1 53826U 22114J   23253.50107920  .00004603  00000-0  30724-3 0  9995,2 53826  53.2172  74.5508 0001290  89.9229 270.1911 15.08826232 55273,6917.922,95.438,540.68,538.895,0.0
53826.0,STARLINK-4756,PAYLOAD,2023-09-10 18:23:04,15.0884719,0.000137,53.2173,73.3615,85.7191,274.3958,8.0981e-05,1.001e-05,0.0,0 STARLINK-4756,1 53826U 22114J   23253.76602986  .00001001  00000-0  80981-4 0  9995,2 53826  53.2173  73.3615 0001370  85.7191 274.3958 15.08847190 54778,6917.858,95.437,540.671,538.776,0.0
53826.0,STARLINK-4756,PAYLOAD,2023-09-11 11:52:20,15.08836926,0.0001347,53.2171,70.0907,85.5859,274.5287,7.5398e-05,9.12e-06,0.0,0 STARLINK-4756,1 53826U 22114J   23254.49467600  .00000912  00000-0  75398-4 0  9994,2 53826  53.2171  70.0907 0001347  85.5859 274.5287 15.08836926 55422,6917.89,95.438,540.687,538.823,0.0
53826.0,STARLINK-4756,PAYLOAD,2023-09-11 18:13:52,15.08839125,0.0001365,53.2171,68.9013,84.8897,275.2251,3.6816e-05,2.98e-06,0.0,0 STARLINK-4756,1 53826U 22114J   23254.75963607  .00000298  00000-0  36816-4 0  9990,2 53826  53.2171  68.9013 0001365  84.8897 275.2251 15.08839125 54927,6917.883,95.438,540.692,538.804,0.0
53826.0,STARLINK-4756,PAYLOAD,2023-09-12 11:43:07,15.08837354,0.000128,53.217,65.6269,100.6447,259.4689,2.6975e-05,1.41e-06,0.0,0 STARLINK-4756,1 53826U 22114J   23255.48827616  .00000141  00000-0  26975-4 0  9992,2 53826  53.2170  65.6269 0001280 100.6447 259.4689 15.08837354 55570,6917.888,95.438,540.639,538.868,0.0
53826.0,STARLINK-4756,PAYLOAD,2023-09-12 19:40:02,15.08847499,0.0001363,53.2179,64.1417,83.8705,276.2442,1.4337e-05,-6e-07,0.0,0 STARLINK-4756,1 53826U 22114J   23255.81947100 -.00000060  00000-0  14337-4 0  9990,2 53826  53.2179  64.1417 0001363  83.8705 276.2442 15.08847499 55620,6917.857,95.437,540.665,538.78,0.0
53826.0,STARLINK-4756,PAYLOAD,2023-09-13 11:33:53,15.08844656,0.0001337,53.2182,61.1677,84.4187,275.6957,6.8429e-05,8.01e-06,0.0,0 STARLINK-4756,1 53826U 22114J   23256.48187007  .00000801  00000-0  68429-4 0  9999,2 53826  53.2182  61.1677 0001337  84.4187 275.6957 15.08844656 55728,6917.866,95.437,540.656,538.806,0.0
53826.0,STARLINK-4756,PAYLOAD,2023-09-13 17:55:25,15.08851356,0.0001275,53.2181,59.9788,81.9767,278.137,0.00011186,1.493e-05,0.0,0 STARLINK-4756,1 53826U 22114J   23256.74682413  .00001493  00000-0  11186-3 0  9994,2 53826  53.2181  59.9788 0001275  81.9767 278.1370 15.08851356 55768,6917.846,95.437,540.593,538.829,0.0
